#dP2018 11  8  0  0  0.00000000      96 __u+U ITR00 FIT  IAC
## 2026 345600.00000000   900.00000000 58430 0.0000000000000
+   91   C01C02C03C04C05C06C07C08C09C10C11C12C13C14E01E02E03
+        E04E05E07E08E09E11E12E14E18E19E21E24E25E26E27E30G01
+        G02G03G04G05G06G07G08G09G10G11G12G13G14G15G16G17G18
+        G19G20G21G22G23G24G25G26G27G28G29G30G31G32J01J02J03
+        R01R02R03R04R05R07R08R09R10R11R13R14R15R16R17R18R19
+        R20R21R22R23R24R26  0  0  0  0  0  0  0  0  0  0  0
++         0  0  0  0  0  0  0  0  0  0  0  0  0  0  0  0  0
++         0  0  0  0  0  0  0  0  0  0  0  0  0  0  0  0  0
++         0  0  0  0  0  0  0  0  0  0  0  0  0  0  0  0  0
++         0  0  0  0  0  0  0  0  0  0  0  0  0  0  0  0  0
++         0  0  0  0  0  0  0  0  0  0  0  0  0  0  0  0  0
++         0  0  0  0  0  0  0  0  0  0  0  0  0  0  0  0  0
%c M  cc GPS ccc cccc cccc cccc cccc ccccc ccccc ccccc ccccc
%c cc cc ccc ccc cccc cccc cccc cccc ccccc ccccc ccccc ccccc
%f  0.0000000  0.000000000  0.00000000000  0.000000000000000
%f  0.0000000  0.000000000  0.00000000000  0.000000000000000
%i    0    0    0    0      0      0      0      0         0
%i    0    0    0    0      0      0      0      0         0
/*                                                          
/*   RSA / INFORMATION & ANALYSIS CENTER (IAC) OF MCC       
/*   ULTRA-RAPID DETERMINATION                              
/* PCV:IGS14_2022 OL/AL:FES2004  NONE     YN ORB:CoN CLK:CoN
*  2018 11 08 13 15  0.00000000
PC01 -32313.157086  27111.449931    282.047333   -139.205090
PC02      0.000000      0.000000      0.000000 999999.999999
PC03 -14679.018572  39496.297954   -109.235650    -85.781119
PC04 -39648.814405  14434.256463     48.573895    -19.444871
PC05  21922.228964  35988.488073  -1054.848808    155.603290
PC06 -21265.917801  36161.744150   1776.134098     29.122223
PC07  -8098.323742  29822.971221  28994.536636   -132.807800
PC08 -20688.388212  18877.662514 -31550.770152     25.265572
PC09  -9297.752808  36670.513532  18447.220775    266.931381
PC10   5197.509295  37236.494354  19609.321967   -221.269859
PC11 -25049.573341   5597.368097  11113.581329    -32.675730
PC12 -13635.673839  -9391.578009  22542.614326    198.986589
PC13  -2889.345812  23336.468112 -34969.634951   -366.619752
PC14 -16016.288004  -1349.616088 -22763.268029    576.730138
PE01  22323.785862  12382.504063 -14978.646624   -473.516740
PE02 -22328.293162 -12333.314044  15029.668679     34.348687
PE03 -17301.881472  -2502.046724 -23891.592408    -97.405162
PE04  18399.516829 -18002.100230  14611.777409   -154.418516
PE05  -6052.815131 -21678.406649 -19226.763297    163.022691
PE07  -8698.775795  28103.197892   3328.098948    -71.559544
PE08 -18147.778054  18251.316211 -14633.349843   6466.936297
PE09   8469.433197 -28157.533734  -3330.638154   6623.852490
PE11   8712.474109 -16770.190920  22780.314670   5705.944622
PE12  26231.867181 -10257.602498   9117.231355   5452.386836
PE14   9551.181924  18632.522040 -24563.226624   6492.576712
PE18  -2024.012914 -16785.892542  16893.898508   5771.757051
PE19  16444.582147   4606.258676  24174.833171    -10.792150
PE21  16254.218421  24448.170997   3810.103081   -503.480258
PE24  -1012.471041 -22183.838276 -19580.140775   6399.907244
PE25 -16246.018482 -24442.375186  -3814.798816   1989.412920
PE26  13334.062674  13465.324149 -22732.021401   5272.039882
PE27    579.047367  21820.086149  20005.038313    594.630995
PE30 -15102.073040   6920.425707  24499.482195   5366.918167
PG01  19207.476211  13708.762347 -12652.210188   -111.436436
PG02   2492.880091 -15474.654679  22025.302659    -52.900538
PG03  13449.195353  20443.132383  10371.568317    158.124632
PG04 -11972.561445  22556.988043  -6393.998243    -33.667325
PG05  -1994.744085 -25136.593098   7883.960085     -0.339846
PG06  17725.402651  -8306.480162  17993.183855    336.919163
PG07  26087.321125   6040.175218  -1136.640288     92.215466
PG08    814.986364  18302.598050 -19120.716045   -121.451948
PG09  18256.845672    501.772420  19245.153843    494.214008
PG10 -13289.935497   8012.695823 -21495.472700    166.571839
PG11  14515.190093  12307.426451 -18998.299168   -701.997145
PG12  -9871.777089 -23742.974947   6825.884737    293.699120
PG13   7813.350532 -20160.510427 -15522.128295    -85.033691
PG14 -18420.911749  18858.586885   2608.834146    -96.009484
PG15  -6306.012048 -16260.261450 -20176.153467   -340.481062
PG16  -1322.600949  24580.188128   9240.933851     -0.013949
PG17  21390.278219 -13885.630969  -6792.090730    -34.092723
PG18  10206.320762  15943.004617 -19166.105030     77.106749
PG19  19172.726104 -18306.461331   2180.350282   -385.743027
PG20 -17257.694287  -2042.263577 -20236.592869    518.419172
PG21 -26063.925050  -2398.692851  -3472.964466   -307.843046
PG22  11128.202554  23970.978384   3066.186906   -568.513106
PG23  12653.492125   9456.254491  21672.211340   -206.731032
PG24 -15425.779163 -14921.193388 -15972.913035    -57.890294
PG25 -15511.579168 -14299.450002  16096.441600   -673.770579
PG26  -6863.751105  18951.211505  17215.576333     33.330077
PG27  -8951.878716  21561.720365 -12491.698365    -15.318405
PG28  13659.414813  -4996.221155 -21604.319063    753.603927
PG29 -16820.619535  -2860.084784  20333.421403    340.438529
PG30  23792.124868  -1881.836796 -11813.119562     -1.704852
PG31 -15945.573218   9466.093539  19199.702745     81.137034
PG32 -20538.231984  15677.734569  -5893.419002   -364.672431
PJ01 -18198.277467  30675.633785 -17883.096691   -277.573214
PJ02 -25453.022867  21041.203347  30877.753142      0.656653
PJ03 -33611.452736  25357.857975   6216.755323      0.737970
PR01  -7200.309637  23647.662767  -6330.708234     34.659632
PR02   2406.999578  21508.764023  13488.731051    338.507811
PR03   9898.202234   6095.553744  22732.696030    148.276921
PR04  11468.703082 -13326.638244  18496.439554    282.978792
PR05   6501.881290 -24325.614652   4152.773732     14.992204
PR07  -9975.873380  -5692.681163 -22751.951005    -51.137041
PR08 -11547.390237  12634.434214 -18866.033792     20.567579
PR09 -15205.365557 -18640.464461  -8368.772408     37.620761
PR10 -20365.118943 -12996.814061   8045.090501     35.285770
PR11 -14242.531814   1066.144661  21144.031687    -46.428506
PR13  15098.718097  18401.151883   9169.178704    -16.600833
PR14  20546.881104  12867.362874  -7936.923975     32.788439
PR15  16705.626675   2994.847506 -18986.944962    -18.912884
PR16    327.409073 -13325.387734 -21785.363129    105.887445
PR17  20102.366611    688.603310 -15649.237271    178.715775
PR18  24101.204673  -8431.170608    294.536064     27.018102
PR19  15128.718088 -12547.079616  16253.474727    -61.362379
PR20  -4286.945123  -9601.977600  23245.649724   -358.366404
PR21 -20422.307163   -336.541148  15303.873057    -13.369406
PR22 -23545.311048   9276.747612  -2656.364773    -64.737256
PR23 -10821.118701  12864.404426 -19195.014730    189.422369
PR24   5895.544008   9038.741685 -23136.933499   -173.519129
PR26  -2834.909101 -10140.103269  23244.464162      3.314959
EOF
